[{"OBJECT_NAME":"ONEWEB-0371","OBJECT_ID":"2021-090U","EPOCH":"2026-03-09T17:14:15.197280","MEAN_MOTION":13.19725543,"ECCENTRICITY":0.00018014,"INCLINATION":87.9232,"RA_OF_ASC_NODE":324.7846,"ARG_OF_PERICENTER":81.9176,"MEAN_ANOMALY":278.2161,"EPHEMERIS_TYPE":0,"CLASSIFICATION_TYPE":"U","NORAD_CAT_ID":49297,"ELEMENT_SET_NO":999,"REV_AT_EPOCH":21333,"BSTAR":-0.00014046442,"MEAN_MOTION_DOT":-4.3e-7,"MEAN_MOTION_DDOT":0},{"OBJECT_NAME":"FENGYUN 1C DEB","OBJECT_ID":"1999-025PJ","EPOCH":"2026-03-09T16:40:38.432928","MEAN_MOTION":13.5733121,"ECCENTRICITY":0.02891458,"INCLINATION":98.8728,"RA_OF_ASC_NODE":134.1167,"ARG_OF_PERICENTER":281.2143,"MEAN_ANOMALY":208.0264,"EPHEMERIS_TYPE":0,"CLASSIFICATION_TYPE":"U","NORAD_CAT_ID":30057,"ELEMENT_SET_NO":999,"REV_AT_EPOCH":94415,"BSTAR":0.0014801306,"MEAN_MOTION_DOT":1.347e-5,"MEAN_MOTION_DDOT":0}]
